[{"OBJECT_NAME":"TOMORROW-S1","OBJECT_ID":"2024-149M","EPOCH":"2026-03-09T17:23:34.533600","MEAN_MOTION":15.31198363,"ECCENTRICITY":0.00018188,"INCLINATION":97.3791,"RA_OF_ASC_NODE":149.6044,"ARG_OF_PERICENTER":207.204,"MEAN_ANOMALY":152.9106,"EPHEMERIS_TYPE":0,"CLASSIFICATION_TYPE":"U","NORAD_CAT_ID":60479,"ELEMENT_SET_NO":999,"REV_AT_EPOCH":8686,"BSTAR":0.0002885603,"MEAN_MOTION_DOT":8.62e-5,"MEAN_MOTION_DDOT":0},{"OBJECT_NAME":"STARLINK-36206","OBJECT_ID":"2025-286F","EPOCH":"2026-03-09T22:55:07.465728","MEAN_MOTION":15.30216763,"ECCENTRICITY":0.00012308,"INCLINATION":53.1588,"RA_OF_ASC_NODE":357.4837,"ARG_OF_PERICENTER":80.3556,"MEAN_ANOMALY":279.7584,"EPHEMERIS_TYPE":0,"CLASSIFICATION_TYPE":"U","NORAD_CAT_ID":66930,"ELEMENT_SET_NO":999,"REV_AT_EPOCH":1544,"BSTAR":0.0010567062,"MEAN_MOTION_DOT":0.00031085,"MEAN_MOTION_DDOT":0}]
